{
  "type": "FeatureCollection",
  "features": [
    {
      "type": "Feature",
      "properties": {
        "norad_id": 34141,
        "name": "COSMOS 2251 DEB",
        "group": "cosmos-2251-debris",
        "lat": 31.786346040276165,
        "lon": 27.529078782222545,
        "alt_km": 713.3031741610239,
        "timestamp": "2025-12-18T21:31:51.398819+00:00",
        "meta_object_name": "COSMOS 2251 DEB",
        "meta_object_id": "1993-036LN",
        "meta_epoch": "2025-12-18T03:24:49.200768",
        "meta_mean_motion": 14.49295663,
        "meta_eccentricity": 0.00467507,
        "meta_inclination": 74.0111,
        "meta_ra_of_asc_node": 18.7119,
        "meta_arg_of_pericenter": 103.1547,
        "meta_mean_anomaly": 313.6609,
        "meta_ephemeris_type": 0,
        "meta_classification_type": "U",
        "meta_norad_cat_id": 34141,
        "meta_element_set_no": 999,
        "meta_rev_at_epoch": 87772,
        "meta_bstar": 0.0010537417,
        "meta_mean_motion_dot": 4.052e-05,
        "meta_mean_motion_ddot": 0,
        "tle_line1": "1 34141U 93036LN  25352.14223612  .00004052  00000+0  10537-2 0  9990",
        "tle_line2": "2 34141  74.0111  18.7119 0046750 103.1547 313.6609 14.49295663877727"
      },
      "geometry": {
        "type": "Point",
        "coordinates": [
          27.529078782222545,
          31.786346040276165
        ]
      }
    },
    {
      "type": "Feature",
      "properties": {
        "norad_id": 34270,
        "name": "COSMOS 2251 DEB",
        "group": "cosmos-2251-debris",
        "lat": -17.107222480654833,
        "lon": -70.30124046586272,
        "alt_km": 688.6652775006323,
        "timestamp": "2025-12-18T21:31:51.398829+00:00",
        "meta_object_name": "COSMOS 2251 DEB",
        "meta_object_id": "1993-036LQ",
        "meta_epoch": "2025-12-18T06:51:51.045408",
        "meta_mean_motion": 14.65212819,
        "meta_eccentricity": 0.00478087,
        "meta_inclination": 74.0115,
        "meta_ra_of_asc_node": 295.9386,
        "meta_arg_of_pericenter": 87.1027,
        "meta_mean_anomaly": 273.5611,
        "meta_ephemeris_type": 0,
        "meta_classification_type": "U",
        "meta_norad_cat_id": 34270,
        "meta_element_set_no": 999,
        "meta_rev_at_epoch": 89177,
        "meta_bstar": 0.00059301432,
        "meta_mean_motion_dot": 3.217e-05,
        "meta_mean_motion_ddot": 0,
        "tle_line1": "1 34270U 93036LQ  25352.28600747  .00003217  00000+0  59301-3 0  9991",
        "tle_line2": "2 34270  74.0115 295.9386 0047808  87.1027 273.5611 14.65212819891776"
      },
      "geometry": {
        "type": "Point",
        "coordinates": [
          -70.30124046586272,
          -17.107222480654833
        ]
      }
    },
    {
      "type": "Feature",
      "properties": {
        "norad_id": 34271,
        "name": "COSMOS 2251 DEB",
        "group": "cosmos-2251-debris",
        "lat": 50.62556289916225,
        "lon": -152.1985840205757,
        "alt_km": 666.1887557326336,
        "timestamp": "2025-12-18T21:31:51.398840+00:00",
        "meta_object_name": "COSMOS 2251 DEB",
        "meta_object_id": "1993-036LR",
        "meta_epoch": "2025-12-18T07:24:42.088608",
        "meta_mean_motion": 14.70877874,
        "meta_eccentricity": 0.00185608,
        "meta_inclination": 74.0192,
        "meta_ra_of_asc_node": 188.506,
        "meta_arg_of_pericenter": 242.1106,
        "meta_mean_anomaly": 297.5783,
        "meta_ephemeris_type": 0,
        "meta_classification_type": "U",
        "meta_norad_cat_id": 34271,
        "meta_element_set_no": 999,
        "meta_rev_at_epoch": 88316,
        "meta_bstar": 0.0015962415,
        "meta_mean_motion_dot": 9.775e-05,
        "meta_mean_motion_ddot": 0,
        "tle_line1": "1 34271U 93036LR  25352.30882047  .00009775  00000+0  15962-2 0  9999",
        "tle_line2": "2 34271  74.0192 188.5060 0018560 242.1106 297.5783 14.70877874883166"
      },
      "geometry": {
        "type": "Point",
        "coordinates": [
          -152.1985840205757,
          50.62556289916225
        ]
      }
    },
    {
      "type": "Feature",
      "properties": {
        "norad_id": 34273,
        "name": "COSMOS 2251 DEB",
        "group": "cosmos-2251-debris",
        "lat": -39.315421087131014,
        "lon": -90.78744140411287,
        "alt_km": 685.9739323083022,
        "timestamp": "2025-12-18T21:31:51.398850+00:00",
        "meta_object_name": "COSMOS 2251 DEB",
        "meta_object_id": "1993-036LT",
        "meta_epoch": "2025-12-18T01:06:01.132416",
        "meta_mean_motion": 14.61274134,
        "meta_eccentricity": 0.00138352,
        "meta_inclination": 74.0365,
        "meta_ra_of_asc_node": 77.2822,
        "meta_arg_of_pericenter": 203.2036,
        "meta_mean_anomaly": 221.4973,
        "meta_ephemeris_type": 0,
        "meta_classification_type": "U",
        "meta_norad_cat_id": 34273,
        "meta_element_set_no": 999,
        "meta_rev_at_epoch": 88699,
        "meta_bstar": 0.00070706297,
        "meta_mean_motion_dot": 3.465e-05,
        "meta_mean_motion_ddot": 0,
        "tle_line1": "1 34273U 93036LT  25352.04584644  .00003465  00000+0  70706-3 0  9992",
        "tle_line2": "2 34273  74.0365  77.2822 0013835 203.2036 221.4973 14.61274134886991"
      },
      "geometry": {
        "type": "Point",
        "coordinates": [
          -90.78744140411287,
          -39.315421087131014
        ]
      }
    },
    {
      "type": "Feature",
      "properties": {
        "norad_id": 34274,
        "name": "COSMOS 2251 DEB",
        "group": "cosmos-2251-debris",
        "lat": 21.291713743258672,
        "lon": 63.12342724424691,
        "alt_km": 692.3759259618027,
        "timestamp": "2025-12-18T21:31:51.398861+00:00",
        "meta_object_name": "COSMOS 2251 DEB",
        "meta_object_id": "1993-036LU",
        "meta_epoch": "2025-12-18T06:59:06.584352",
        "meta_mean_motion": 14.64848128,
        "meta_eccentricity": 0.00217541,
        "meta_inclination": 74.0045,
        "meta_ra_of_asc_node": 57.8721,
        "meta_arg_of_pericenter": 207.5663,
        "meta_mean_anomaly": 219.9219,
        "meta_ephemeris_type": 0,
        "meta_classification_type": "U",
        "meta_norad_cat_id": 34274,
        "meta_element_set_no": 999,
        "meta_rev_at_epoch": 88757,
        "meta_bstar": 0.00087291549,
        "meta_mean_motion_dot": 4.65e-05,
        "meta_mean_motion_ddot": 0,
        "tle_line1": "1 34274U 93036LU  25352.29104843  .00004650  00000+0  87292-3 0  9994",
        "tle_line2": "2 34274  74.0045  57.8721 0021754 207.5663 219.9219 14.64848128887574"
      },
      "geometry": {
        "type": "Point",
        "coordinates": [
          63.12342724424691,
          21.291713743258672
        ]
      }
    },
    {
      "type": "Feature",
      "properties": {
        "norad_id": 34276,
        "name": "COSMOS 2251 DEB",
        "group": "cosmos-2251-debris",
        "lat": 26.80025987865989,
        "lon": -114.7055109283359,
        "alt_km": 694.6101913977591,
        "timestamp": "2025-12-18T21:31:51.398871+00:00",
        "meta_object_name": "COSMOS 2251 DEB",
        "meta_object_id": "1993-036LW",
        "meta_epoch": "2025-12-18T06:09:14.001984",
        "meta_mean_motion": 14.57265594,
        "meta_eccentricity": 0.00224188,
        "meta_inclination": 74.0245,
        "meta_ra_of_asc_node": 74.8325,
        "meta_arg_of_pericenter": 221.1108,
        "meta_mean_anomaly": 171.1638,
        "meta_ephemeris_type": 0,
        "meta_classification_type": "U",
        "meta_norad_cat_id": 34276,
        "meta_element_set_no": 999,
        "meta_rev_at_epoch": 88673,
        "meta_bstar": 0.00059971622,
        "meta_mean_motion_dot": 2.692e-05,
        "meta_mean_motion_ddot": 0,
        "tle_line1": "1 34276U 93036LW  25352.25641206  .00002692  00000+0  59972-3 0  9999",
        "tle_line2": "2 34276  74.0245  74.8325 0022418 221.1108 171.1638 14.57265594886734"
      },
      "geometry": {
        "type": "Point",
        "coordinates": [
          -114.7055109283359,
          26.80025987865989
        ]
      }
    },
    {
      "type": "Feature",
      "properties": {
        "norad_id": 34297,
        "name": "COSMOS 2251 DEB",
        "group": "cosmos-2251-debris",
        "lat": 62.94626861632616,
        "lon": -53.01609040580213,
        "alt_km": 762.5776628276935,
        "timestamp": "2025-12-18T21:31:51.398882+00:00",
        "meta_object_name": "COSMOS 2251 DEB",
        "meta_object_id": "1993-036MT",
        "meta_epoch": "2025-12-18T06:44:47.283648",
        "meta_mean_motion": 14.36634074,
        "meta_eccentricity": 0.00175018,
        "meta_inclination": 74.0488,
        "meta_ra_of_asc_node": 274.0571,
        "meta_arg_of_pericenter": 341.7096,
        "meta_mean_anomaly": 141.2935,
        "meta_ephemeris_type": 0,
        "meta_classification_type": "U",
        "meta_norad_cat_id": 34297,
        "meta_element_set_no": 999,
        "meta_rev_at_epoch": 88144,
        "meta_bstar": 0.00011263271,
        "meta_mean_motion_dot": 3.06e-06,
        "meta_mean_motion_ddot": 0,
        "tle_line1": "1 34297U 93036MT  25352.28110282  .00000306  00000+0  11263-3 0  9991",
        "tle_line2": "2 34297  74.0488 274.0571 0017501 341.7096 141.2935 14.36634074881446"
      },
      "geometry": {
        "type": "Point",
        "coordinates": [
          -53.01609040580213,
          62.94626861632616
        ]
      }
    }
  ]
}